IDEFIX & ARIANE 42P R/B 
1 27422U 02021B   25345.53439159  .00000541  00000+0  22243-3 0  9995
2 27422  98.5784 280.2409 0012944  86.8629 273.4035 14.30949149231413
AQUA                    
1 27424U 02022A   25345.60469061  .00001795  00000+0  36937-3 0  9998
2 27424  98.4037 306.4652 0001038 115.2833   0.7096 14.61804948255866
CZ-4B R/B               
1 27432U 02024C   25345.43312323  .00000099  00000+0  74179-4 0  9995
2 27432  98.8999  34.2092 0049153 273.6898  96.7130 14.14527508216762
MIDORI II (ADEOS-II)    
1 27597U 02056A   25345.59527221  .00000480  00000+0  20677-3 0  9991
2 27597  98.7634 298.5455 0000120 142.0394 218.0796 14.29204662197717
H-2A R/B                
1 27601U 02056E   25345.65527487  .00000591  00000+0  22143-3 0  9991
2 27601  98.3063 304.4551 0071399  64.3148 107.5995 14.33674766201493
CZ-4B R/B               
1 28059U 03049C   25345.49525368  .00000681  00000+0  16776-3 0  9995
2 28059  98.6788 332.0122 0048940 139.8242 220.6588 14.54907904173778
CZ-2C R/B               
1 28222U 04012C   25345.58153284  .00045500  00000+0  66359-3 0  9993
2 28222  97.7426  38.1069 0016597 275.1423  84.7935 15.55403176190544
SL-16 R/B               
1 28353U 04021B   25345.49010411 -.00000201  00000+0 -79902-4 0  9992
2 28353  71.0018  57.5879 0005361 202.3481 157.7409 14.14581129110366
CZ-4B R/B               
1 28415U 04035C   25345.05453570  .00012494  00000+0  46255-3 0  9994
2 28415  97.3613  15.4207 0031661 283.8046  75.9671 15.27323929166379
CZ-2C R/B               
1 28480U 04046B   25345.48644648  .00000365  00000+0  15034-3 0  9998
2 28480  98.1989 260.9422 0140536  55.9839 305.4600 14.26939994 95920
ARIANE 5 R/B            
1 28499U 04049H   25345.43971719  .00001857  00000+0  21180-3 0  9994
2 28499  98.2522 145.6743 0083354 277.2443  81.9301 14.85007897132696
CZ-2D R/B               
1 28738U 05024B   25345.49782013  .00048886  00000+0  77903-3 0  9994
2 28738  97.3640 352.9117 0005668  11.0045 349.1331 15.53088154126062
