CCSDS_OMM_VERS = 2.0
CREATION_DATE  = 
ORIGINATOR     = 

OBJECT_NAME    = IDEFIX & ARIANE 42P R/B
OBJECT_ID      = 2002-021B
CENTER_NAME    = EARTH
REF_FRAME      = TEME
TIME_SYSTEM    = UTC
MEAN_ELEMENT_THEORY = SGP/SGP4

EPOCH          = 2025-12-11T12:49:31.433376
MEAN_MOTION    = 14.30949149
ECCENTRICITY   = .00129447
INCLINATION    = 98.5784
RA_OF_ASC_NODE = 280.2409
ARG_OF_PERICENTER = 86.8629
MEAN_ANOMALY   = 273.4035

EPHEMERIS_TYPE = 0
CLASSIFICATION_TYPE = U
NORAD_CAT_ID   = 27422
ELEMENT_SET_NO = 999
REV_AT_EPOCH   = 23141
BSTAR          = .22242549E-3
MEAN_MOTION_DOT = .541E-5
MEAN_MOTION_DDOT = 0

CCSDS_OMM_VERS = 2.0
CREATION_DATE  = 
ORIGINATOR     = 

OBJECT_NAME    = AQUA
OBJECT_ID      = 2002-022A
CENTER_NAME    = EARTH
REF_FRAME      = TEME
TIME_SYSTEM    = UTC
MEAN_ELEMENT_THEORY = SGP/SGP4

EPOCH          = 2025-12-11T14:30:45.268704
MEAN_MOTION    = 14.61804948
ECCENTRICITY   = .0001038
INCLINATION    = 98.4037
RA_OF_ASC_NODE = 306.4652
ARG_OF_PERICENTER = 115.2833
MEAN_ANOMALY   = 0.7096

EPHEMERIS_TYPE = 0
CLASSIFICATION_TYPE = U
NORAD_CAT_ID   = 27424
ELEMENT_SET_NO = 999
REV_AT_EPOCH   = 25586
BSTAR          = .36937075E-3
MEAN_MOTION_DOT = .1795E-4
MEAN_MOTION_DDOT = 0

CCSDS_OMM_VERS = 2.0
CREATION_DATE  = 
ORIGINATOR     = 

OBJECT_NAME    = CZ-4B R/B
OBJECT_ID      = 2002-024C
CENTER_NAME    = EARTH
REF_FRAME      = TEME
TIME_SYSTEM    = UTC
MEAN_ELEMENT_THEORY = SGP/SGP4

EPOCH          = 2025-12-11T10:23:41.847072
MEAN_MOTION    = 14.14527508
ECCENTRICITY   = .00491531
INCLINATION    = 98.8999
RA_OF_ASC_NODE = 34.2092
ARG_OF_PERICENTER = 273.6898
MEAN_ANOMALY   = 96.7130

EPHEMERIS_TYPE = 0
CLASSIFICATION_TYPE = U
NORAD_CAT_ID   = 27432
ELEMENT_SET_NO = 999
REV_AT_EPOCH   = 21676
BSTAR          = .74178612E-4
MEAN_MOTION_DOT = .99E-6
MEAN_MOTION_DDOT = 0

CCSDS_OMM_VERS = 2.0
CREATION_DATE  = 
ORIGINATOR     = 

OBJECT_NAME    = MIDORI II (ADEOS-II)
OBJECT_ID      = 2002-056A
CENTER_NAME    = EARTH
REF_FRAME      = TEME
TIME_SYSTEM    = UTC
MEAN_ELEMENT_THEORY = SGP/SGP4

EPOCH          = 2025-12-11T14:17:11.518944
MEAN_MOTION    = 14.29204662
ECCENTRICITY   = .00001206
INCLINATION    = 98.7634
RA_OF_ASC_NODE = 298.5455
ARG_OF_PERICENTER = 142.0394
MEAN_ANOMALY   = 218.0796

EPHEMERIS_TYPE = 0
CLASSIFICATION_TYPE = U
NORAD_CAT_ID   = 27597
ELEMENT_SET_NO = 999
REV_AT_EPOCH   = 19771
BSTAR          = .206768E-3
MEAN_MOTION_DOT = .48E-5
MEAN_MOTION_DDOT = 0

CCSDS_OMM_VERS = 2.0
CREATION_DATE  = 
ORIGINATOR     = 

OBJECT_NAME    = H-2A R/B
OBJECT_ID      = 2002-056E
CENTER_NAME    = EARTH
REF_FRAME      = TEME
TIME_SYSTEM    = UTC
MEAN_ELEMENT_THEORY = SGP/SGP4

EPOCH          = 2025-12-11T15:43:35.748768
MEAN_MOTION    = 14.33674766
ECCENTRICITY   = .00713992
INCLINATION    = 98.3063
RA_OF_ASC_NODE = 304.4551
ARG_OF_PERICENTER = 64.3148
MEAN_ANOMALY   = 107.5995

EPHEMERIS_TYPE = 0
CLASSIFICATION_TYPE = U
NORAD_CAT_ID   = 27601
ELEMENT_SET_NO = 999
REV_AT_EPOCH   = 20149
BSTAR          = .22142992E-3
MEAN_MOTION_DOT = .591E-5
MEAN_MOTION_DDOT = 0

CCSDS_OMM_VERS = 2.0
CREATION_DATE  = 
ORIGINATOR     = 

OBJECT_NAME    = CZ-4B R/B
OBJECT_ID      = 2003-049C
CENTER_NAME    = EARTH
REF_FRAME      = TEME
TIME_SYSTEM    = UTC
MEAN_ELEMENT_THEORY = SGP/SGP4

EPOCH          = 2025-12-11T11:53:09.917952
MEAN_MOTION    = 14.54907904
ECCENTRICITY   = .00489405
INCLINATION    = 98.6788
RA_OF_ASC_NODE = 332.0122
ARG_OF_PERICENTER = 139.8242
MEAN_ANOMALY   = 220.6588

EPHEMERIS_TYPE = 0
CLASSIFICATION_TYPE = U
NORAD_CAT_ID   = 28059
ELEMENT_SET_NO = 999
REV_AT_EPOCH   = 17377
BSTAR          = .16776233E-3
MEAN_MOTION_DOT = .681E-5
MEAN_MOTION_DDOT = 0

CCSDS_OMM_VERS = 2.0
CREATION_DATE  = 
ORIGINATOR     = 

OBJECT_NAME    = CZ-2C R/B
OBJECT_ID      = 2004-012C
CENTER_NAME    = EARTH
REF_FRAME      = TEME
TIME_SYSTEM    = UTC
MEAN_ELEMENT_THEORY = SGP/SGP4

EPOCH          = 2025-12-11T13:57:24.437376
MEAN_MOTION    = 15.55403176
ECCENTRICITY   = .00165977
INCLINATION    = 97.7426
RA_OF_ASC_NODE = 38.1069
ARG_OF_PERICENTER = 275.1423
MEAN_ANOMALY   = 84.7935

EPHEMERIS_TYPE = 0
CLASSIFICATION_TYPE = U
NORAD_CAT_ID   = 28222
ELEMENT_SET_NO = 999
REV_AT_EPOCH   = 19054
BSTAR          = .66358926E-3
MEAN_MOTION_DOT = .455E-3
MEAN_MOTION_DDOT = 0

CCSDS_OMM_VERS = 2.0
CREATION_DATE  = 
ORIGINATOR     = 

OBJECT_NAME    = SL-16 R/B
OBJECT_ID      = 2004-021B
CENTER_NAME    = EARTH
REF_FRAME      = TEME
TIME_SYSTEM    = UTC
MEAN_ELEMENT_THEORY = SGP/SGP4

EPOCH          = 2025-12-11T11:45:44.995104
MEAN_MOTION    = 14.14581129
ECCENTRICITY   = .00053615
INCLINATION    = 71.0018
RA_OF_ASC_NODE = 57.5879
ARG_OF_PERICENTER = 202.3481
MEAN_ANOMALY   = 157.7409

EPHEMERIS_TYPE = 0
CLASSIFICATION_TYPE = U
NORAD_CAT_ID   = 28353
ELEMENT_SET_NO = 999
REV_AT_EPOCH   = 11036
BSTAR          = -.79901686E-4
MEAN_MOTION_DOT = -.201E-5
MEAN_MOTION_DDOT = 0

CCSDS_OMM_VERS = 2.0
CREATION_DATE  = 
ORIGINATOR     = 

OBJECT_NAME    = CZ-4B R/B
OBJECT_ID      = 2004-035C
CENTER_NAME    = EARTH
REF_FRAME      = TEME
TIME_SYSTEM    = UTC
MEAN_ELEMENT_THEORY = SGP/SGP4

EPOCH          = 2025-12-11T01:18:31.884480
MEAN_MOTION    = 15.27323929
ECCENTRICITY   = .00316612
INCLINATION    = 97.3613
RA_OF_ASC_NODE = 15.4207
ARG_OF_PERICENTER = 283.8046
MEAN_ANOMALY   = 75.9671

EPHEMERIS_TYPE = 0
CLASSIFICATION_TYPE = U
NORAD_CAT_ID   = 28415
ELEMENT_SET_NO = 999
REV_AT_EPOCH   = 16637
BSTAR          = .46255346E-3
MEAN_MOTION_DOT = .12494E-3
MEAN_MOTION_DDOT = 0

CCSDS_OMM_VERS = 2.0
CREATION_DATE  = 
ORIGINATOR     = 

OBJECT_NAME    = CZ-2C R/B
OBJECT_ID      = 2004-046B
CENTER_NAME    = EARTH
REF_FRAME      = TEME
TIME_SYSTEM    = UTC
MEAN_ELEMENT_THEORY = SGP/SGP4

EPOCH          = 2025-12-11T11:40:28.975872
MEAN_MOTION    = 14.26939994
ECCENTRICITY   = .01405362
INCLINATION    = 98.1989
RA_OF_ASC_NODE = 260.9422
ARG_OF_PERICENTER = 55.9839
MEAN_ANOMALY   = 305.4600

EPHEMERIS_TYPE = 0
CLASSIFICATION_TYPE = U
NORAD_CAT_ID   = 28480
ELEMENT_SET_NO = 999
REV_AT_EPOCH   = 9592
BSTAR          = .1503381E-3
MEAN_MOTION_DOT = .365E-5
MEAN_MOTION_DDOT = 0

CCSDS_OMM_VERS = 2.0
CREATION_DATE  = 
ORIGINATOR     = 

OBJECT_NAME    = ARIANE 5 R/B
OBJECT_ID      = 2004-049H
CENTER_NAME    = EARTH
REF_FRAME      = TEME
TIME_SYSTEM    = UTC
MEAN_ELEMENT_THEORY = SGP/SGP4

EPOCH          = 2025-12-11T10:33:11.565216
MEAN_MOTION    = 14.85007897
ECCENTRICITY   = .00833544
INCLINATION    = 98.2522
RA_OF_ASC_NODE = 145.6743
ARG_OF_PERICENTER = 277.2443
MEAN_ANOMALY   = 81.9301

EPHEMERIS_TYPE = 0
CLASSIFICATION_TYPE = U
NORAD_CAT_ID   = 28499
ELEMENT_SET_NO = 999
REV_AT_EPOCH   = 13269
BSTAR          = .21180283E-3
MEAN_MOTION_DOT = .1857E-4
MEAN_MOTION_DDOT = 0

CCSDS_OMM_VERS = 2.0
CREATION_DATE  = 
ORIGINATOR     = 

OBJECT_NAME    = CZ-2D R/B
OBJECT_ID      = 2005-024B
CENTER_NAME    = EARTH
REF_FRAME      = TEME
TIME_SYSTEM    = UTC
MEAN_ELEMENT_THEORY = SGP/SGP4

EPOCH          = 2025-12-11T11:56:51.659232
MEAN_MOTION    = 15.53088154
ECCENTRICITY   = .00056688
INCLINATION    = 97.3640
RA_OF_ASC_NODE = 352.9117
ARG_OF_PERICENTER = 11.0045
MEAN_ANOMALY   = 349.1331

EPHEMERIS_TYPE = 0
CLASSIFICATION_TYPE = U
NORAD_CAT_ID   = 28738
ELEMENT_SET_NO = 999
REV_AT_EPOCH   = 12606
BSTAR          = .77902655E-3
MEAN_MOTION_DOT = .48886E-3
MEAN_MOTION_DDOT = 0

